#dP2024  7 21  6  0  0.00000000      96 __u+U IGS20 EXT  IAC
## 2324  21600.00000000   900.00000000 60512 0.2500000000000
+   54   G02G03G04G05G06G07G08G09G10G11G12G13G14G15G16G17G18
+        G19G20G21G22G23G24G25G26G27G28G29G30G31G32R01R02R03
+        R04R05R07R08R09R11R12R13R14R15R16R17R18R19R20R21R22
+        R24R25R26  0  0  0  0  0  0  0  0  0  0  0  0  0  0
+          0  0  0  0  0  0  0  0  0  0  0  0  0  0  0  0  0
++        10  8  9  9  8  7  6  6  9  8  7  7  7  7  8  8  7
++         8  8  8  8  9  7  8  7  8  9  8  8  8  7  9  9  8
++        10  8  9  8  8  9  7  8  7  7  7  7 10  9 10  7  6
++         7  9  7  0  0  0  0  0  0  0  0  0  0  0  0  0  0
++         0  0  0  0  0  0  0  0  0  0  0  0  0  0  0  0  0
%c M  cc GPS ccc cccc cccc cccc cccc ccccc ccccc ccccc ccccc
%c cc cc ccc ccc cccc cccc cccc cccc ccccc ccccc ccccc ccccc
%f  0.0000000  0.000000000  0.00000000000  0.000000000000000
%f  0.0000000  0.000000000  0.00000000000  0.000000000000000
%i    0    0    0    0      0      0      0      0         0
%i    0    0    0    0      0      0      0      0         0
/* IAC                                ULTRA-RAPID PREDICTION
/* S/V CLOCKS ARE ALIGNED TO GNSS TIME                      
/* G:C1WC2W R:C1PC2P E:C1XC5X C:C2IC6I J:C1CC2S             
/* PCV:IGS20_2317 OL/AL:FES2004  NONE     YN ORB:CoN CLK:CoN
*  2024 07 22  5  0  0.00000000
PG02   2707.132104 -16265.907873 -20277.536090   -394.329866
PG03  -9599.750389 -20942.146339 -13486.225861    468.444773
PG04   -159.585197 -24884.034887   9102.794763    408.704833
PG05  -5268.537016  14567.816124  21379.520701   -180.575435
PG06 -25786.364764   4639.128750  -4636.107637    146.842922
PG07 -16668.193708  -9127.470422  19257.603142    -65.268685
PG08   6172.664473 -25491.158253   2156.143332    284.551870
PG09  -9197.256340 -17529.681675  17594.990557    282.855765
PG10  21650.234688   7732.072591 -13377.221524    -72.488904
PG11 -21672.850718  12329.620880   9087.177380   -709.065884
PG12   5599.783872  21230.513952 -15256.750534   -524.225363
PG13 -13744.464507  20970.984919   8170.749997    666.110593
PG14 -22089.693031 -10849.069668 -10228.397225    454.477315
PG15  -2678.567322  26247.358620   1489.790882    183.826092
PG16  10286.965379 -11012.602927  21522.055735   -229.953346
PG17 -14654.957092  -2687.366099 -21576.561288    672.518416
PG18  17004.937947   8209.248823  18777.226933   -639.010830
PG19 -16497.230657   6333.087315 -19863.678373    513.863062
PG20 -14399.131442   8316.375927  20741.505751    372.504365
PG21   7975.105873 -16984.397098 -17933.195086    107.397947
PG22 -19802.827099  -4444.443957 -16559.845638    -42.450396
PG23  21146.206105  16081.451200  -2381.235760    279.442085
PG24  -4088.137355  17652.039006 -19720.770198   -484.066857
PG25  15676.717402  20516.748700  -7120.076805    498.733030
PG26  19823.902300  -1328.142364  17641.766922    115.474885
PG27  12584.901974 -19718.858441  11877.355281    -31.661865
PG28  25325.176262  -3762.706424  -7078.491571   -341.310020
PG29   5159.229974  20593.118437  15831.609971   -588.315457
PG30 -24016.458680  -1377.869125  11697.790756   -353.620112
PG31  24364.671570 -10224.283273   4081.481852   -226.571497
PG32  15224.158406    380.947702 -21533.425178   -610.834708
PR01   8352.051641 -10839.820309 -21532.396648     92.129434
PR02   1232.340093 -23405.206127  -9944.964070    -23.817230
PR03  -7227.099351 -23259.387562   7524.048719    104.191075
PR04 -11079.334524 -10585.831683  20414.763229    246.305753
PR05  -9325.973936   7819.628694  22429.340618    134.876503
PR07   7407.951393  23061.840580  -8039.024383     87.169954
PR08  11258.615133  10306.669889 -20390.730872     -6.096670
PR09  -3041.337769  10937.997004 -22816.700299    199.055544
PR11  23601.346777   9524.491214  -1529.806452     17.448867
PR12  19353.009500  -1220.359461  16607.883158     42.742694
PR13   5840.414615  -9602.712892  22891.193357    -49.650256
PR14 -14480.958304 -13630.571657  16006.885136     26.717597
PR15 -23879.644860  -8983.608147   -105.472643     77.635464
PR16 -19474.944466   1031.985082 -16448.041862     27.583527
PR17  -2406.936667 -11382.453985 -22702.087500    106.765974
PR18 -15669.637396    677.875773 -20118.985784    153.173064
PR19 -21366.348845  10658.632864  -8962.648428   -284.763947
PR20 -14471.625309  17206.496420  12084.021142   -116.564750
PR21   1903.632370  11563.841154  22647.451695   -119.554421
PR22  16590.992700   -870.503200  19376.824488     84.164321
PR24  13141.252539 -18006.409955 -12409.094302    -64.713748
PR25   2516.521804  11479.305007  22639.141028    -97.593607
PR26  11225.322492  11578.261402 -19737.551452      5.590344
*  2024 07 22  5 15  0.00000000
PG02   4900.018201 -17133.368867 -19118.384842   -394.323211
PG03  -8276.188569 -19975.327036 -15669.078345    468.459287
PG04    261.033242 -25701.661378   6417.538568    408.711778
PG05  -7273.098997  13063.796820  21763.697123   -180.576595
PG06 -25180.741157   4265.380493  -7431.995117    146.822061
PG07 -14662.489431  -9936.538277  20443.388468    -65.262279
PG08   6416.218300 -25024.517604   4981.224044    284.566112
PG09  -8728.349601 -19405.965403  15774.717134    282.869423
PG10  22630.738594   8753.192224 -10973.245462    -72.497943
PG11 -22585.450389  12368.458703   6404.461305   -709.071760
PG12   4195.655074  20081.306054 -17173.773613   -524.228101
PG13 -13599.903747  19840.955641  10775.642550    666.112797
PG14 -22682.880929 -11724.785868  -7672.081167    454.485296
PG15  -3008.124898  25850.037317   4280.881095    183.829994
PG16  12074.033898  -9218.799752  21477.211324   -229.943823
PG17 -14033.075152  -5165.374320 -21525.328086    672.511142
PG18  14936.166722   8999.497920  20109.159624   -639.014280
PG19 -15942.676487   4089.801919 -20922.673087    513.867882
PG20 -16342.011443   7065.501381  19724.534717    372.503977
PG21   9939.119229 -17654.339919 -16170.446520    107.395792
PG22 -20960.020667  -5916.637831 -14581.308076    -42.454435
PG23  21115.821890  16294.097145    496.959463    279.450071
PG24  -6078.179222  18407.783803 -18409.367558   -484.068108
PG25  14815.690384  20120.690997  -9717.504558    498.733324
PG26  21290.275236    -36.762505  15948.711347    115.468539
PG27  12550.450331 -18153.268621  14173.842196    -31.662635
PG28  24517.935923  -3193.454903  -9713.321237   -341.324114
PG29   4557.183313  22193.116612  13707.946266   -588.313745
PG30 -22740.085538  -2089.429134  13932.719068   -353.614166
PG31  24752.656192 -10095.658589   1283.575099   -226.571237
PG32  14812.464392   2863.932043 -21649.873245   -610.832752
PR01   8895.622883  -8180.287813 -22467.896447     92.130477
PR02   1339.875906 -21991.606421 -12754.627067    -23.817380
PR03  -7516.969940 -23949.014923   4410.299918    104.191695
PR04 -11602.929666 -12939.575153  18691.773756    246.307457
PR05  -9783.010499   5053.122484  23019.109985    134.876999
PR07   7715.761671  23823.899809  -4952.810139     87.170679
PR08  11795.730728  12671.637813 -18691.310708     -6.096672
PR09  -5728.507895  10112.174186 -22688.099126    199.057485
PR11  23278.734221   9267.827339  -4711.908154     17.448011
PR12  21180.369814   -702.275154  14234.897639     42.743173
PR13   8502.700120  -8751.127817  22393.309071    -49.650686
PR14 -12510.921266 -12895.270315  18135.767910     26.717580
PR15 -23749.773276  -8804.283297   3089.482976     77.635138
PR16 -21296.824442    541.705631 -14043.011760     27.583812
PR17   -351.012991 -13209.535530 -21824.500461    106.769006
PR18 -13632.950868   -900.432878 -21538.970376    153.174801
PR19 -20231.626761  10020.349103 -11864.762025   -284.765240
PR20 -15385.755629  18171.108733   9200.043608   -116.565894
PR21   -159.667905  13370.571023  21710.348417   -119.557453
PR22  14600.777319    614.460448  20928.679868     84.158268
PR24  14085.572679 -18992.770377  -9586.484987    -64.715237
PR25    386.415521  13207.818618  21816.142832    -97.594990
PR26  11765.814059  13842.946314 -17876.686532      5.592129
EOF
